GLOBALSTAR M045 [-]     
1 25676U 99019A   23338.85674104 -.00000071  00000+0  20276-3 0  9996
2 25676  51.9961 102.2745 0001368 144.3736  30.6095 12.27020726124601
GLOBALSTAR M019 [-]     
1 25677U 99019B   23338.68080925  .00000053  00000+0  14921-2 0  9998
2 25677  51.9853 193.7175 0000361  46.7952  58.2414 12.13848237117075
GLOBALSTAR M044 [-]     
1 25678U 99019C   23338.45769344 -.00000107  00000+0 -32048-3 0  9996
2 25678  51.9977  75.5457 0006477  44.9930  35.1760 11.90226784104551
GLOBALSTAR M042 [-]     
1 25679U 99019D   23338.81469572 -.00000084  00000+0  72269-4 0  9990
2 25679  51.9990 192.8564 0002205 205.8315 284.1987 12.22052810116743
GLOBALSTAR M025 [-]     
1 25770U 99031A   23338.41717706 -.00000051  00000+0  50746-3 0  9996
2 25770  51.9853  18.3256 0001003 279.0588 179.3897 11.22548119418733
GLOBALSTAR M049 [-]     
1 25771U 99031B   23338.48362965  .00000003  00000+0  23752-2 0  9999
2 25771  51.9912  24.7558 0003375 151.4569 208.6413 11.12100658 55044
GLOBALSTAR M047 [-]     
1 25772U 99031C   23338.48162943 -.00000059  00000+0  28684-3 0  9996
2 25772  51.9840  75.2944 0016125  22.9709 337.1815 11.31917148407619
GLOBALSTAR M052 [-]     
1 25773U 99031D   23338.69679102 -.00000108  00000+0 -14261-2 0  9991
2 25773  51.9837 140.8255 0001770 354.8823 137.7135 11.15047351415984
